NORAD_CAT_ID,OBJECT_NAME,OBJECT_TYPE,EPOCH,MEAN_MOTION,ECCENTRICITY,INCLINATION,RA_OF_ASC_NODE,ARG_OF_PERICENTER,MEAN_ANOMALY,BSTAR,MEAN_MOTION_DOT,MEAN_MOTION_DDOT,TLE_LINE0,TLE_LINE1,TLE_LINE2,SEMIMAJOR_AXIS,PERIOD,APOGEE,PERIGEE,DECAYED
53159.0,STARLINK-4111,PAYLOAD,2023-06-24 00:22:44,15.08845085,7.47e-05,53.2157,286.9434,101.4785,258.6291,0.0001232,1.674e-05,0.0,0 STARLINK-4111,1 53159U 22083AD  23175.01579152  .00001674  00000-0  12320-3 0  9995,2 53159  53.2157 286.9434 0000747 101.4785 258.6291 15.08845085 52585,6917.865,95.437,540.247,539.213,0.0
53159.0,STARLINK-4111,PAYLOAD,2023-06-25 00:13:31,15.08839196,0.0001122,53.2158,282.4786,88.4868,271.6252,3.6248e-06,-2.3e-06,0.0,0 STARLINK-4111,1 53159U 22083AD  23176.00939511 -.00000230  00000-0  36248-5 0  9999,2 53159  53.2158 282.4786 0001122  88.4868 271.6252 15.08839196 52736,6917.883,95.438,540.524,538.972,0.0
53159.0,STARLINK-4111,PAYLOAD,2023-06-25 16:07:22,15.08851339,0.0001042,53.2161,279.5072,88.0785,272.0326,0.00040946,6.237e-05,0.0,0 STARLINK-4111,1 53159U 22083AD  23176.67179244  .00006237  00000-0  40946-3 0  9991,2 53159  53.2161 279.5072 0001042  88.0785 272.0326 15.08851339 52831,6917.846,95.437,540.432,538.99,0.0
53159.0,STARLINK-4111,PAYLOAD,2023-06-26 06:25:51,15.08835953,0.0001274,53.2153,276.8312,89.3024,270.8114,0.00017142,2.441e-05,0.0,0 STARLINK-4111,1 53159U 22083AD  23177.26796145  .00002441  00000-0  17142-3 0  9997,2 53159  53.2153 276.8312 0001274  89.3024 270.8114 15.08835953 52921,6917.893,95.438,540.639,538.876,0.0
53159.0,STARLINK-4111,PAYLOAD,2023-06-27 12:38:11,15.08854706,0.0001089,53.2157,271.1808,65.19,294.9206,0.00090662,0.00014176,0.0,0 STARLINK-4111,1 53159U 22083AD  23178.52652482  .00014176  00000-0  90662-3 0  9998,2 53159  53.2157 271.1808 0001089  65.1900 294.9206 15.08854706 53110,6917.835,95.437,540.454,538.947,0.0
53159.0,STARLINK-4111,PAYLOAD,2023-06-28 10:53:35,15.08844497,0.0001088,53.2159,267.0172,59.0947,301.0152,0.00018805,2.707e-05,0.0,0 STARLINK-4111,1 53159U 22083AD  23179.45388427  .00002707  00000-0  18805-3 0  9992,2 53159  53.2159 267.0172 0001088  59.0947 301.0152 15.08844497 53253,6917.867,95.437,540.484,538.979,0.0
53159.0,STARLINK-4111,PAYLOAD,2023-06-29 10:44:22,15.08841844,0.0001014,53.2155,262.5578,88.8412,271.2696,-1.7568e-06,-3.16e-06,0.0,0 STARLINK-4111,1 53159U 22083AD  23180.44748265 -.00000316  00000-0 -17568-5 0  9996,2 53159  53.2155 262.5578 0001014  88.8412 271.2696 15.08841844 53406,6917.875,95.437,540.441,539.038,0.0
53159.0,STARLINK-4111,PAYLOAD,2023-06-30 13:45:55,15.08846395,9.57e-05,53.2168,257.5022,72.4412,287.6685,0.00012329,1.675e-05,0.0,0 STARLINK-4111,1 53159U 22083AD  23181.57355819  .00001675  00000-0  12329-3 0  9995,2 53159  53.2168 257.5022 0000957  72.4412 287.6685 15.08846395 53575,6917.861,95.437,540.388,539.064,0.0
53159.0,STARLINK-4111,PAYLOAD,2023-07-01 08:50:34,15.08828032,0.000101,53.217,253.9346,81.9525,278.1582,-1.6829e-05,-5.55e-06,0.0,0 STARLINK-4111,1 53159U 22083AD  23182.36845457 -.00000555  00000-0 -16829-4 0  9993,2 53159  53.2170 253.9346 0001010  81.9525 278.1582 15.08828032 53690,6917.917,95.438,540.481,539.083,0.0
53159.0,STARLINK-4111,PAYLOAD,2023-07-01 21:33:39,15.08837284,0.0001024,53.2171,251.5559,81.4904,278.6204,1.7145e-05,-1.5e-07,0.0,0 STARLINK-4111,1 53159U 22083AD  23182.89836954 -.00000015  00000-0  17145-4 0  9995,2 53159  53.2171 251.5559 0001024  81.4904 278.6204 15.08837284 53776,6917.889,95.438,540.462,539.045,0.0
53159.0,STARLINK-4111,PAYLOAD,2023-07-02 13:27:30,15.0884362,0.0001117,53.2175,248.5828,89.9124,270.1996,6.7277e-05,7.83e-06,0.0,0 STARLINK-4111,1 53159U 22083AD  23183.56076481  .00000783  00000-0  67277-4 0  9993,2 53159  53.2175 248.5828 0001117  89.9124 270.1996 15.08843620 53872,6917.869,95.437,540.507,538.962,0.0
53159.0,STARLINK-4111,PAYLOAD,2023-07-03 11:42:52,15.08856138,0.0001,53.2164,244.4182,83.8822,276.2284,0.00029325,4.384e-05,0.0,0 STARLINK-4111,1 53159U 22083AD  23184.48811124  .00004384  00000-0  29325-3 0  9998,2 53159  53.2164 244.4182 0001000  83.8822 276.2284 15.08856138 54019,6917.831,95.437,540.388,539.004,0.0
53159.0,STARLINK-4111,PAYLOAD,2023-07-03 21:15:12,15.08844152,0.0001021,53.2155,242.6344,85.6206,274.4903,0.00010991,1.462e-05,0.0,0 STARLINK-4111,1 53159U 22083AD  23184.88555933  .00001462  00000-0  10991-3 0  9998,2 53159  53.2155 242.6344 0001021  85.6206 274.4903 15.08844152 54075,6917.868,95.437,540.439,539.026,0.0
53159.0,STARLINK-4111,PAYLOAD,2023-07-04 09:58:17,15.08834313,0.0001093,53.2154,240.2553,91.0684,269.0433,-0.00011331,-2.09e-05,0.0,0 STARLINK-4111,1 53159U 22083AD  23185.41548496 -.00002090  00000-0 -11331-3 0  9993,2 53159  53.2154 240.2553 0001093  91.0684 269.0433 15.08834313 54155,6917.898,95.438,540.519,539.007,0.0
53159.0,STARLINK-4111,PAYLOAD,2023-07-05 12:59:51,15.0883677,0.0001028,53.2153,235.1996,95.6545,264.4564,-5.5354e-05,-1.169e-05,0.0,0 STARLINK-4111,1 53159U 22083AD  23186.54156738 -.00001169  00000-0 -55354-4 0  9992,2 53159  53.2153 235.1996 0001028  95.6545 264.4564 15.08836770 54324,6917.89,95.438,540.466,539.044,0.0
53159.0,STARLINK-4111,PAYLOAD,2023-07-07 03:09:07,15.08840316,9.85e-05,53.2149,228.0636,87.5462,272.5643,0.00018547,2.665e-05,0.0,0 STARLINK-4111,1 53159U 22083AD  23188.13133194  .00002665  00000-0  18547-3 0  9992,2 53159  53.2149 228.0636 0000985  87.5462 272.5643 15.08840316 54565,6917.879,95.438,540.426,539.063,0.0
53159.0,STARLINK-4111,PAYLOAD,2023-07-08 09:21:26,15.08845312,0.0001014,53.2155,222.4136,95.8186,264.2922,9.7585e-05,1.266e-05,0.0,0 STARLINK-4111,1 53159U 22083AD  23189.38988773  .00001266  00000-0  97585-4 0  9997,2 53159  53.2155 222.4136 0001014  95.8186 264.2922 15.08845312 54754,6917.864,95.437,540.431,539.028,0.0
53159.0,STARLINK-4111,PAYLOAD,2023-07-08 18:53:45,15.08838527,9.64e-05,53.2153,220.6297,91.9883,268.122,1.0754e-05,-1.17e-06,0.0,0 STARLINK-4111,1 53159U 22083AD  23189.78733088 -.00000117  00000-0  10754-4 0  9996,2 53159  53.2153 220.6297 0000964  91.9883 268.1220 15.08838527 54815,6917.885,95.438,540.417,539.083,0.0
53159.0,STARLINK-4111,PAYLOAD,2023-07-09 12:23:00,15.08835473,9.6e-05,53.2162,217.3584,90.6747,269.4355,3.2498e-05,2.29e-06,0.0,0 STARLINK-4111,1 53159U 22083AD  23190.51597690  .00000229  00000-0  32498-4 0  9998,2 53159  53.2162 217.3584 0000960  90.6747 269.4355 15.08835473 54920,6917.894,95.438,540.423,539.095,0.0
53159.0,STARLINK-4111,PAYLOAD,2023-07-10 18:35:20,15.08837224,9.69e-05,53.2162,211.7083,84.9048,275.2054,4.7245e-05,4.64e-06,0.0,0 STARLINK-4111,1 53159U 22083AD  23191.77453728  .00000464  00000-0  47245-4 0  9997,2 53159  53.2162 211.7083 0000969  84.9048 275.2054 15.08837224 55110,6917.889,95.438,540.424,539.084,0.0
53159.0,STARLINK-4111,PAYLOAD,2023-07-12 00:47:39,15.08842898,9.8e-05,53.2159,206.0572,83.9372,276.1731,9.2788e-05,1.189e-05,0.0,0 STARLINK-4111,1 53159U 22083AD  23193.03309470  .00001189  00000-0  92788-4 0  9999,2 53159  53.2159 206.0572 0000980  83.9372 276.1731 15.08842898 55304,6917.872,95.437,540.414,539.059,0.0
53159.0,STARLINK-4111,PAYLOAD,2023-07-13 10:10:45,15.08842622,9.87e-05,53.2157,199.8124,85.0653,275.0452,6.3287e-05,7.2e-06,0.0,0 STARLINK-4111,1 53159U 22083AD  23194.42413412  .00000720  00000-0  63287-4 0  9997,2 53159  53.2157 199.8124 0000987  85.0653 275.0452 15.08842622 55512,6917.872,95.437,540.42,539.055,0.0
53159.0,STARLINK-4111,PAYLOAD,2023-07-15 00:20:00,15.08837481,0.0001002,53.2158,192.6754,84.975,275.1356,3.8258e-05,3.21e-06,0.0,0 STARLINK-4111,1 53159U 22083AD  23196.01389704  .00000321  00000-0  38258-4 0  9997,2 53159  53.2158 192.6754 0001002  84.9750 275.1356 15.08837481 55755,6917.888,95.438,540.446,539.06,0.0
53159.0,STARLINK-4111,PAYLOAD,2023-07-16 06:32:20,15.088365,0.0001014,53.2161,187.0261,82.585,277.5257,4.0141e-05,3.51e-06,0.0,0 STARLINK-4111,1 53159U 22083AD  23197.27246007  .00000351  00000-0  40141-4 0  9991,2 53159  53.2161 187.0261 0001014  82.5850 277.5257 15.08836500 55946,6917.891,95.438,540.458,539.055,0.0
53159.0,STARLINK-4111,PAYLOAD,2023-07-17 07:58:30,15.08841086,0.0001111,53.2165,182.2696,87.8023,272.3096,8.3864e-05,1.047e-05,0.0,0 STARLINK-4111,1 53159U 22083AD  23198.33229870  .00001047  00000-0  83864-4 0  9990,2 53159  53.2165 182.2696 0001111  87.8023 272.3096 15.08841086 56105,6917.877,95.437,540.511,538.973,0.0
53159.0,STARLINK-4111,PAYLOAD,2023-07-19 02:53:55,15.08836635,0.0001233,53.2165,174.2397,88.0682,272.0451,6.2313e-06,-1.89e-06,0.0,0 STARLINK-4111,1 53159U 22083AD  23200.12078593 -.00000189  00000-0  62313-5 0  9999,2 53159  53.2165 174.2397 0001233  88.0682 272.0451 15.08836635 56378,6917.891,95.438,540.609,538.903,0.0
53159.0,STARLINK-4111,PAYLOAD,2023-07-19 07:40:04,15.08841446,0.0001231,53.2164,173.3475,86.6026,273.5106,4.4214e-05,4.16e-06,0.0,0 STARLINK-4111,1 53159U 22083AD  23200.31950205  .00000416  00000-0  44214-4 0  9990,2 53159  53.2164 173.3475 0001231  86.6026 273.5106 15.08841446 56401,6917.876,95.437,540.593,538.889,0.0
53159.0,STARLINK-4111,PAYLOAD,2023-07-21 07:21:39,15.0883973,0.0001217,53.2165,164.4267,83.672,276.4411,3.2761e-05,2.34e-06,0.0,0 STARLINK-4111,1 53159U 22083AD  23202.30670368  .00000234  00000-0  32761-4 0  9992,2 53159  53.2165 164.4267 0001217  83.6720 276.4411 15.08839730 56701,6917.881,95.438,540.588,538.904,0.0
53159.0,STARLINK-4111,PAYLOAD,2023-07-24 06:54:01,15.08834732,0.0001288,53.2173,151.0478,97.0892,263.0247,3.0711e-05,2.01e-06,0.0,0 STARLINK-4111,1 53159U 22083AD  23205.28751245  .00000201  00000-0  30711-4 0  9993,2 53159  53.2173 151.0478 0001288  97.0892 263.0247 15.08834732 56529,6917.896,95.438,540.653,538.87,0.0
53159.0,STARLINK-4111,PAYLOAD,2023-07-25 05:09:24,15.08838993,0.0001312,53.2164,146.8825,87.3315,272.7828,4.2452e-05,3.88e-06,0.0,0 STARLINK-4111,1 53159U 22083AD  23206.21487229  .00000388  00000-0  42452-4 0  9996,2 53159  53.2164 146.8825 0001312  87.3315 272.7828 15.08838993 56667,6917.883,95.438,540.656,538.841,0.0
